[{"OBJECT_NAME":"TRANSPORTER-11 OBJECT A","OBJECT_ID":"2024-149A","EPOCH":"2026-03-09T17:54:54.302112","MEAN_MOTION":15.31141332,"ECCENTRICITY":0.00031096,"INCLINATION":97.378,"RA_OF_ASC_NODE":149.0949,"ARG_OF_PERICENTER":191.001,"MEAN_ANOMALY":169.1164,"EPHEMERIS_TYPE":0,"CLASSIFICATION_TYPE":"U","NORAD_CAT_ID":60468,"ELEMENT_SET_NO":999,"REV_AT_EPOCH":8683,"BSTAR":0.00036053677,"MEAN_MOTION_DOT":0.00010774,"MEAN_MOTION_DDOT":0},{"OBJECT_NAME":"FENGYUN 1C DEB","OBJECT_ID":"1999-025BCE","EPOCH":"2026-03-09T20:27:54.391104","MEAN_MOTION":15.38307136,"ECCENTRICITY":0.00917966,"INCLINATION":98.5506,"RA_OF_ASC_NODE":34.4945,"ARG_OF_PERICENTER":39.9911,"MEAN_ANOMALY":320.8043,"EPHEMERIS_TYPE":0,"CLASSIFICATION_TYPE":"U","NORAD_CAT_ID":30988,"ELEMENT_SET_NO":999,"REV_AT_EPOCH":875,"BSTAR":0.0023570074,"MEAN_MOTION_DOT":0.00103953,"MEAN_MOTION_DDOT":0}]
